HULIANWANG DIGUI-96     
1 66412U 25258A   26187.37628605 -.00000090  00000+0  74040-4 0  9990
2 66412  50.0022 226.8170 0000905 216.1942 143.8869 13.29326783 32283
HULIANWANG DIGUI-97     
1 66413U 25258B   26187.48483321 -.00000094  00000+0  63748-4 0  9994
2 66413  49.9988 226.6546 0001057 217.2355 142.8444 13.29326173 32298
HULIANWANG DIGUI-98     
1 66414U 25258C   26187.47660012 -.00000089  00000+0  76041-4 0  9992
2 66414  50.0024 226.6875 0001138 214.0416 146.0383 13.29322649 32293
HULIANWANG DIGUI-99     
1 66415U 25258D   26187.36795707 -.00000091  00000+0  70346-4 0  9996
2 66415  50.0023 226.7760 0001004 219.5900 140.4899 13.29326050 32275
HULIANWANG DIGUI-100    
1 66416U 25258E   26187.46823726 -.00000085  00000+0  84685-4 0  9995
2 66416  50.0024 226.6482 0001015 224.5236 135.5554 13.29322734 32309
HULIANWANG DIGUI-101    
1 66417U 25258F   26187.38455064 -.00000086  00000+0  82281-4 0  9994
2 66417  49.9974 226.7693 0000866 219.9695 140.1113 13.29326660 32299
HULIANWANG DIGUI-102    
1 66418U 25258G   26187.35959951 -.00000100  00000+0  52761-4 0  9993
2 66418  49.9991 226.6632 0000940 215.4141 144.6669 13.29322667 32288
HULIANWANG DIGUI-103    
1 66419U 25258H   26187.35113990 -.00000100  00000+0  52254-4 0  9996
2 66419  49.9986 226.6051 0001011 225.3216 134.7574 13.29325745 32286
HULIANWANG DIGUI-104    
1 66420U 25258J   26187.34282855 -.00000105  00000+0  41105-4 0  9992
2 66420  50.0002 226.6002 0000978 214.8847 145.1961 13.29325756 32277
STARLINK-35617          
1 66422U 25259A   26187.39671255  .00027682  00000+0  10119-2 0  9993
2 66422  43.0005 324.1660 0000916 276.3563  83.7184 15.27573854 37642
STARLINK-35618          
1 66423U 25259B   26187.45695602  .00027831  00000+0  10170-2 0  9996
2 66423  43.0005 323.7564 0001082 282.1127  77.9603 15.27581288 37659
STARLINK-35588          
1 66424U 25259C   26187.38899441  .00027663  00000+0  10102-2 0  9994
2 66424  43.0008 324.1066 0001353 271.2020  88.8676 15.27606127 37647
STARLINK-35555          
1 66425U 25259D   26187.45051609  .00031271  00000+0  11400-2 0  9991
2 66425  43.0032 323.7074 0001373 269.8019  90.2675 15.27610144 37653
STARLINK-35589          
1 66426U 25259E   26187.44795220  .00019974  00000+0  73331-3 0  9993
2 66426  43.0015 323.6830 0001160 274.3932  85.6787 15.27583682 37651
STARLINK-35611          
1 66427U 25259F   26187.37871299  .00026350  00000+0  96354-3 0  9993
2 66427  43.0038 324.0248 0001431 285.8439  74.2255 15.27583316 37642
STARLINK-35610          
1 66428U 25259G   26187.44024851  .00028407  00000+0  10376-2 0  9990
2 66428  43.0039 323.6246 0001536 261.9469  98.1208 15.27588048 37652
STARLINK-35533          
1 66429U 25259H   26187.43640557  .00017326  00000+0  63779-3 0  9991
2 66429  43.0045 323.5980 0001557 275.9858  84.0817 15.27572147 37657
STARLINK-35470          
1 66430U 25259J   26187.43255001  .00018743  00000+0  68921-3 0  9997
2 66430  43.0031 323.5670 0001760 271.1246  88.9404 15.27564037 37659
STARLINK-35439          
1 66431U 25259K   26187.42995207  .00018750  00000+0  68886-3 0  9994
2 66431  43.0031 323.5457 0001221 276.1231  83.9482 15.27594319 37651
STARLINK-35446          
1 66432U 25259L   26187.42867821  .00022124  00000+0  81101-3 0  9990
2 66432  43.0023 323.5346 0001426 248.7378 111.3322 15.27583437 37652
STARLINK-35457          
1 66433U 25259M   26187.42612423  .00027713  00000+0  10134-2 0  9993
2 66433  43.0027 323.5149 0001477 285.4711  74.5978 15.27560380 37652
STARLINK-35389          
1 66434U 25259N   26187.42483873  .00031528  00000+0  11509-2 0  9995
2 66434  43.0041 323.5057 0001709 282.8384  77.2277 15.27563692 37653
STARLINK-35502          
1 66435U 25259P   26187.41840563  .00032632  00000+0  11899-2 0  9997
2 66435  43.0017 323.4537 0001746 277.5654  82.4999 15.27584625 37659
STARLINK-35501          
1 66436U 25259Q   26187.42353891  .00011076  00000+0  41153-3 0  9998
2 66436  43.0037 323.4940 0001810 254.8221 105.2431 15.27571674 37655
STARLINK-35474          
1 66437U 25259R   26187.39284417  .00020805  00000+0  76329-3 0  9995
2 66437  43.0016 324.1301 0001476 260.3886  99.6799 15.27585072 37648
STARLINK-34681          
1 66438U 25259S   26187.45179974  .00021417  00000+0  78559-3 0  9991
2 66438  43.0018 323.7081 0001454 250.4437 109.6258 15.27578197 37540
STARLINK-35327          
1 66439U 25259T   26187.41712091  .00028530  00000+0  10423-2 0  9999
2 66439  43.0034 323.4452 0001793 282.2439  77.8211 15.27577705 37650
STARLINK-35405          
1 66440U 25259U   26187.83898466  .00016683  00000+0  61411-3 0  9998
2 66440  43.0017 321.4499 0001281 242.4500 117.6222 15.27595341 37719
STARLINK-35426          
1 66441U 25259V   26187.43896315  .00027055  00000+0  98890-3 0  9992
2 66441  43.0039 323.6098 0001622 262.6182  97.4485 15.27585805 37655
STARLINK-34724          
1 66442U 25259W   26186.43387625  .00046365  00000+0  16818-2 0  9995
2 66442  43.0013 329.8275 0004094 288.6841  71.3566 15.27613368 37498
