OBJECT_NAME,OBJECT_ID,EPOCH,MEAN_MOTION,ECCENTRICITY,INCLINATION,RA_OF_ASC_NODE,ARG_OF_PERICENTER,MEAN_ANOMALY,EPHEMERIS_TYPE,CLASSIFICATION_TYPE,NORAD_CAT_ID,ELEMENT_SET_NO,REV_AT_EPOCH,BSTAR,MEAN_MOTION_DOT,MEAN_MOTION_DDOT
HULIANWANG DIGUI-96,2025-258A,2026-07-06T09:01:51.114720,13.29326783,.00009056,50.0022,226.8170,216.1942,143.8869,0,U,66412,999,3228,.74040478E-4,-.9E-6,0
HULIANWANG DIGUI-97,2025-258B,2026-07-06T11:38:09.589344,13.29326173,.00010571,49.9988,226.6546,217.2355,142.8444,0,U,66413,999,3229,.63748257E-4,-.94E-6,0
HULIANWANG DIGUI-98,2025-258C,2026-07-06T11:26:18.250368,13.29322649,.00011388,50.0024,226.6875,214.0416,146.0383,0,U,66414,999,3229,.76040822E-4,-.89E-6,0
HULIANWANG DIGUI-99,2025-258D,2026-07-06T08:49:51.490848,13.29326050,.00010043,50.0023,226.7760,219.5900,140.4899,0,U,66415,999,3227,.70346357E-4,-.91E-6,0
HULIANWANG DIGUI-100,2025-258E,2026-07-06T11:14:15.699264,13.29322734,.00010159,50.0024,226.6482,224.5236,135.5554,0,U,66416,999,3230,.84685395E-4,-.85E-6,0
HULIANWANG DIGUI-101,2025-258F,2026-07-06T09:13:45.175296,13.29326660,.00008669,49.9974,226.7693,219.9695,140.1113,0,U,66417,999,3229,.82280802E-4,-.86E-6,0
HULIANWANG DIGUI-102,2025-258G,2026-07-06T08:37:49.397664,13.29322667,.00009401,49.9991,226.6632,215.4141,144.6669,0,U,66418,999,3228,.52760834E-4,-.1E-5,0
HULIANWANG DIGUI-103,2025-258H,2026-07-06T08:25:38.487360,13.29325745,.00010114,49.9986,226.6051,225.3216,134.7574,0,U,66419,999,3228,.52254429E-4,-.1E-5,0
HULIANWANG DIGUI-104,2025-258J,2026-07-06T08:13:40.386720,13.29325756,.00009785,50.0002,226.6002,214.8847,145.1961,0,U,66420,999,3227,.41104506E-4,-.105E-5,0
STARLINK-35617,2025-259A,2026-07-06T09:31:15.964320,15.27573854,.00009165,43.0005,324.1660,276.3563,83.7184,0,U,66422,999,3764,.10118817E-2,.27682E-3,0
STARLINK-35618,2025-259B,2026-07-06T10:58:01.000128,15.27581288,.00010826,43.0005,323.7564,282.1127,77.9603,0,U,66423,999,3765,.10170416E-2,.27831E-3,0
STARLINK-35588,2025-259C,2026-07-06T09:20:09.117024,15.27606127,.00013534,43.0008,324.1066,271.2020,88.8676,0,U,66424,999,3764,.10102029E-2,.27663E-3,0
STARLINK-35555,2025-259D,2026-07-06T10:48:44.590176,15.27610144,.00013735,43.0032,323.7074,269.8019,90.2675,0,U,66425,999,3765,.11400341E-2,.31271E-3,0
STARLINK-35589,2025-259E,2026-07-06T10:45:03.070080,15.27583682,.00011606,43.0015,323.6830,274.3932,85.6787,0,U,66426,999,3765,.7333074E-3,.19974E-3,0
STARLINK-35611,2025-259F,2026-07-06T09:05:20.802336,15.27583316,.00014316,43.0038,324.0248,285.8439,74.2255,0,U,66427,999,3764,.96354041E-3,.2635E-3,0
STARLINK-35610,2025-259G,2026-07-06T10:33:57.471264,15.27588048,.00015366,43.0039,323.6246,261.9469,98.1208,0,U,66428,999,3765,.10375905E-2,.28407E-3,0
STARLINK-35533,2025-259H,2026-07-06T10:28:25.441248,15.27572147,.00015579,43.0045,323.5980,275.9858,84.0817,0,U,66429,999,3765,.63779263E-3,.17326E-3,0
STARLINK-35470,2025-259J,2026-07-06T10:22:52.320864,15.27564037,.00017605,43.0031,323.5670,271.1246,88.9404,0,U,66430,999,3765,.68920986E-3,.18743E-3,0
STARLINK-35439,2025-259K,2026-07-06T10:19:07.858848,15.27594319,.00012217,43.0031,323.5457,276.1231,83.9482,0,U,66431,999,3765,.68886045E-3,.1875E-3,0
STARLINK-35446,2025-259L,2026-07-06T10:17:17.797344,15.27583437,.00014265,43.0023,323.5346,248.7378,111.3322,0,U,66432,999,3765,.81101099E-3,.22124E-3,0
STARLINK-35457,2025-259M,2026-07-06T10:13:37.133472,15.27560380,.00014775,43.0027,323.5149,285.4711,74.5978,0,U,66433,999,3765,.10134204E-2,.27713E-3,0
STARLINK-35389,2025-259N,2026-07-06T10:11:46.066272,15.27563692,.00017098,43.0041,323.5057,282.8384,77.2277,0,U,66434,999,3765,.11509151E-2,.31528E-3,0
STARLINK-35502,2025-259P,2026-07-06T10:02:30.246432,15.27584625,.00017465,43.0017,323.4537,277.5654,82.4999,0,U,66435,999,3765,.11899298E-2,.32632E-3,0
STARLINK-35501,2025-259Q,2026-07-06T10:09:53.761824,15.27571674,.00018103,43.0037,323.4940,254.8221,105.2431,0,U,66436,999,3765,.41152827E-3,.11076E-3,0
STARLINK-35474,2025-259R,2026-07-06T09:25:41.736288,15.27585072,.00014766,43.0016,324.1301,260.3886,99.6799,0,U,66437,999,3764,.76329471E-3,.20805E-3,0
STARLINK-34681,2025-259S,2026-07-06T10:50:35.497536,15.27578197,.00014548,43.0018,323.7081,250.4437,109.6258,0,U,66438,999,3754,.78558897E-3,.21417E-3,0
STARLINK-35327,2025-259T,2026-07-06T10:00:39.246624,15.27577705,.00017939,43.0034,323.4452,282.2439,77.8211,0,U,66439,999,3765,.10423321E-2,.2853E-3,0
STARLINK-35405,2025-259U,2026-07-06T20:08:08.274624,15.27595341,.0001281,43.0017,321.4499,242.4500,117.6222,0,U,66440,999,3771,.61411E-3,.16683E-3,0
STARLINK-35426,2025-259V,2026-07-06T10:32:06.416160,15.27585805,.00016227,43.0039,323.6098,262.6182,97.4485,0,U,66441,999,3765,.98889525E-3,.27055E-3,0
STARLINK-34724,2025-259W,2026-07-05T10:24:46.908000,15.27613368,.0004094,43.0013,329.8275,288.6841,71.3566,0,U,66442,999,3749,.16818E-2,.46365E-3,0
